name,latitude,longitude,Region.num,dep,x,y
Mullion,50.027991,-5.240468,Co 7,no hyperrhoticity,167.943733069843,19.3087770040063
St Buryan,50.076007,-5.626154,Co 6,no hyperrhoticity,140.589359507805,25.9147380732226
Gwinear,50.187582,-5.370383,Co 5,no hyperrhoticity,159.443574230953,37.4579041630802
St Ewe,50.282002,-4.840752,Co 4,no hyperrhoticity,197.639475907542,46.3779512355886
Blackawton,50.346039,-3.682552,D 11,no hyperrhoticity,280.29877609666,50.9908318960522
Cornwood,50.421219,-3.96414,D 10,no hyperrhoticity,260.48799755494,59.8395760697026
Egloshayle,50.508415,-4.790314,Co 3,no hyperrhoticity,202.176970952009,71.4096682695489
Widecombe-in-the-Moor,50.574983,-3.81225,D 9,no hyperrhoticity,271.693318044532,76.660022246683
Peter Tavy,50.577706,-4.097848,D 8,no hyperrhoticity,251.483265286542,77.4958694191852
Whitwell,50.596439,-1.26302,Ha 7,no hyperrhoticity,452.155622530431,77.7371582519854
Altarnun,50.606127,-4.512319,Co 2,hyperrhoticity,222.251308989395,81.5676106265658
Kingston,50.616444,-2.06195,Do 5,no hyperrhoticity,395.617671901426,79.7040858944823
Kennford,50.667967,-3.535299,D 7,no hyperrhoticity,291.514544669773,86.5553357202129
Portesham,50.671133,-2.563294,Do 4,no hyperrhoticity,360.199066120934,85.9343211954479
South Zeal,50.725834,-3.910826,D 6,no hyperrhoticity,265.147329972885,93.6061533234335
Whitchurch Canonicorum,50.754717,-2.857273,Do 3,no hyperrhoticity,339.535132731962,95.4269048223966
Gittisham,50.779847,-3.222883,D 5,no hyperrhoticity,313.794921707535,98.583530966696
Burley,50.82642,-1.701727,Ha 6,no hyperrhoticity,421.005660080149,103.091633381238
Ansty,50.8317,-2.329,Do 2,no hyperrhoticity,376.833031291119,103.68790244381
Firle,50.847426,0.097874,Sx 6,no hyperrhoticity,547.668423037376,107.481766896555
Kilkhampton,50.877069,-4.482512,Co 1,no hyperrhoticity,225.371055274142,111.616759524873
Chawleigh,50.897815,-3.833946,D 4,no hyperrhoticity,271.047131942716,112.589558271913
Merriott,50.912859,-2.795911,So 13,no hyperrhoticity,344.052427813628,112.962173333076
Sutton,50.927046,-0.609178,Sx 3,no hyperrhoticity,497.735053165217,115.159039646248
Hambledon,50.931636,-1.086495,Ha 5,no hyperrhoticity,464.187719372521,115.145701372492
Horam,50.93361,0.243262,Sx 5,no hyperrhoticity,557.609963493227,117.364008352452
Sixpenny Handley,50.9516,-2.000834,Do 1,no hyperrhoticity,399.941423307556,116.968268485378
Pitminster,50.966687,-3.113596,So 12,no hyperrhoticity,321.811984353879,119.236095430684
(East) Harting,50.970644,-0.86665,Sx 2,no hyperrhoticity,479.568188965555,119.697198281634
Weare Giffard,50.976335,-4.171064,D 3,no hyperrhoticity,247.601965584939,121.962263718326
Fletching,50.992464,0.033713,Sx 4,no hyperrhoticity,542.708057498425,123.480533085466
Whiteparish,51.013156,-1.647986,W 9,no hyperrhoticity,424.691295041532,123.871873357405
Horsington,51.013355,-2.42717,So 11,no hyperrhoticity,370.037189255659,123.921863644254
Appledore,51.033234,0.816376,K 7,no hyperrhoticity,597.447252029997,129.819924453958
Stoke St. Gregory,51.043532,-2.929939,So 10,no hyperrhoticity,334.814481658332,127.601943537412
Swimbridge,51.052032,-3.97222,D 2,no hyperrhoticity,261.783912279841,129.986101524166
Fovant,51.059856,-1.993764,W 8,no hyperrhoticity,400.436972459373,129.005735149352
Brompton Regis,51.075116,-3.500705,So 9,no hyperrhoticity,294.878855849906,131.773685107047
King's Somborne,51.078178,-1.486981,Ha 3,no hyperrhoticity,435.934261556277,131.168203617316
New Alresford,51.090632,-1.161219,Ha 4,no hyperrhoticity,458.736112757045,132.762432041185
Warnham,51.090843,-0.34712,Sx 1,no hyperrhoticity,515.740823075864,133.750572927533
Withypool,51.108187,-3.649063,So 8,no hyperrhoticity,284.569648372005,135.67299517284
Goudhurst,51.11306,0.457947,K 6,no hyperrhoticity,572.026017455656,137.794734052036
Stogumber,51.127849,-3.291264,So 7,no hyperrhoticity,309.652040984166,137.358946464
Thursley,51.150417,-0.712899,Sr 5,no hyperrhoticity,490.012788460881,139.863199162146
Sutton Veny,51.179217,-2.151269,W 7,no hyperrhoticity,389.42747531279,142.289110286837
Stogursey,51.17958,-3.138084,So 6,no hyperrhoticity,320.458513730447,142.934121598207
Wootton Courtenay,51.1797,-3.521062,So 5,no hyperrhoticity,293.693361395784,143.431463435793
Coldharbour,51.181289,-0.357745,Sr 3,no hyperrhoticity,514.772363705894,143.790349852085
Denton,51.18264,1.16917,K 5,no hyperrhoticity,621.459823280614,147.433130221267
Parracombe,51.188321,-3.909505,D 1,no hyperrhoticity,266.572003639528,145.023354018572
Outwood,51.191485,-0.113074,Sr 4,no hyperrhoticity,531.841364542989,145.334401854693
Wedmore,51.228772,-2.81108,So 3,no hyperrhoticity,343.373014649738,148.101155618498
Coleford,51.236308,-2.448202,So 4,no hyperrhoticity,368.712939604845,148.722068786737
Netheravon,51.240295,-1.785885,W 6,no hyperrhoticity,414.945183725492,149.091774117045
Warren Street,51.244295,0.759441,K 4,no hyperrhoticity,592.575764828057,153.132356383634
Hatherden,51.249651,-1.507402,Ha 1,no hyperrhoticity,434.376191573142,150.225622300051
Oakley,51.250869,-1.188708,Ha 2,no hyperrhoticity,456.61465466503,150.558424691197
East Clandon,51.252926,-0.483648,Sr 2,no hyperrhoticity,505.809464301962,151.566659112525
Staple,51.264036,1.256024,K 3,no hyperrhoticity,627.126466742479,156.746459819591
Walton-on-the-Hill,51.282598,-0.247666,Sr 1,no hyperrhoticity,522.196273430259,155.23223705422
Steeple Ashton,51.309006,-2.137016,W 5,no hyperrhoticity,390.450562765858,156.719533385485
Blagdon,51.327415,-2.719179,So 2,no hyperrhoticity,349.896592239744,159.003212507007
Burbage,51.348757,-1.671462,W 4,no hyperrhoticity,422.877900920927,161.182174788601
Inkpen,51.374941,-1.464228,Brk 4,no hyperrhoticity,437.287397809096,164.178840706546
Swallowfield,51.379406,-0.96065,Brk 5,no hyperrhoticity,472.326556053762,165.05171178701
Farningham,51.380963,0.218655,K 2,no hyperrhoticity,554.380467420291,167.04817888969
Weston,51.397,-2.393,So 1,no hyperrhoticity,372.662018133128,166.568903994844
Avebury,51.428867,-1.85494,W 3,no hyperrhoticity,410.083708644445,170.049288451829
Stoke,51.446101,0.62131,K 1,no hyperrhoticity,582.135234344471,175.214994597835
Harmondsworth,51.487453,-0.475554,MxL 1,no hyperrhoticity,505.832075281421,177.656011867702
Binfield Heath,51.498447,-0.928179,O 6,no hyperrhoticity,474.392447958349,178.321386338324
Sutton Benger,51.505328,-2.083788,W 2,no hyperrhoticity,394.185282162396,178.545333881091
West Ilsley,51.540371,-1.324842,Brk 3,no hyperrhoticity,446.818411053608,182.654938599582
Hackney,51.551795,-0.064644,MxL 2,no hyperrhoticity,534.167388171379,185.484279270296
Latteridge,51.55967,-2.485006,Gl 7,no hyperrhoticity,366.381703783582,184.69652053163
Uffington,51.601076,-1.56018,Brk 2,no hyperrhoticity,430.458540131479,189.281253766018
Canewdon,51.615886,0.738725,Ess 15,no hyperrhoticity,589.585205614458,194.389540102569
Mon 4,51.620585,-3.126099,Mon 4,no hyperrhoticity,322.049463030505,191.959682405773
Mon 5,51.637428,-2.987901,Mon 5,no hyperrhoticity,331.640859621474,193.694305470642
Mon 6,51.639126,-2.754597,Mon 6,no hyperrhoticity,347.786347763495,193.690633328436
Ashton Keynes,51.641845,-1.930725,W 1,no hyperrhoticity,404.793165295777,193.725663876143
Cuxham,51.652529,-1.037174,O 5,no hyperrhoticity,466.601948667618,195.350417973651
Coleshill,51.65307,-0.627904,Bk 5,no hyperrhoticity,494.910360501662,195.863032225307
Doddinghurst,51.663696,0.302137,Ess 14,no hyperrhoticity,559.199384032371,198.662664619603
Buckland,51.678969,-1.507944,Brk 1,no hyperrhoticity,434.017650475001,197.966432349204
Tillingham,51.695127,0.879492,Ess 13,no hyperrhoticity,598.980283703529,203.573832005131
Slimbridge,51.728226,-2.377663,Gl 6,no hyperrhoticity,373.919067316135,203.397064116929
Little Baddow,51.745216,0.574241,Ess 12,no hyperrhoticity,577.693589362209,208.354562594015
Bream,51.753067,-2.575322,Gl 3,no hyperrhoticity,360.290854723673,206.248679471061
Whiteshill,51.76258,-2.233281,Gl 4,no hyperrhoticity,383.902105185559,207.175773622059
Mon 3,51.764794,-2.852012,Mon 3,no hyperrhoticity,341.209015181435,207.739610480091
Netteswell,51.767372,0.104023,Ess 11,no hyperrhoticity,545.168279124007,209.777081155985
Long Crendon,51.773991,-1.001586,Bk 3,hyperrhoticity,468.878871480444,208.890504109842
Eynsham,51.781605,-1.376999,O 4,no hyperrhoticity,442.972848288754,209.44933889185
Mon 2,51.792691,-3.01015,Mon 2,no hyperrhoticity,330.34030980479,210.98118759816
East Mersea,51.79769,0.984602,Ess 10,no hyperrhoticity,605.775316013174,215.267963041115
Buckland,51.805422,-0.723713,Bk 4,no hyperrhoticity,487.987008036838,212.684685259102
High Easter,51.80716,0.348399,Ess 8,no hyperrhoticity,561.884501468493,214.715799835326
Wheathampstead,51.81125,-0.292506,Hrt 3,no hyperrhoticity,517.697357778546,213.941189816012
Tiptree,51.812119,0.74656,Ess 9,no hyperrhoticity,589.305954153627,216.226721605539
Islip,51.823063,-1.232683,O 3,no hyperrhoticity,452.878705955517,214.154654958127
Sherborne,51.830096,-1.752249,Gl 5,no hyperrhoticity,417.070903663705,214.687457780927
Codicote,51.849869,-0.235508,Hrt 2,no hyperrhoticity,521.521930558858,218.329112629172
Whitchurch,51.856956,-2.658584,He 6,no hyperrhoticity,354.648478131124,217.850541946917
Horton,51.864256,-0.660048,Bk 6,no hyperrhoticity,492.255558039376,219.305960061906
Mon 1,51.876776,-2.79461,Mon 1,hyperrhoticity,345.305608498865,220.148114305757
Little Bentley,51.889753,1.075092,Ess 7,no hyperrhoticity,611.580466204392,225.762267862661
Stisted,51.891879,0.618749,Ess 5,no hyperrhoticity,580.179120852299,224.770295226203
West Bergholt,51.907508,0.856427,Ess 6,no hyperrhoticity,596.460884616889,227.123058279106
Kingham,51.914357,-1.627725,O 1,no hyperrhoticity,425.603120515612,224.094639142301
Stewkley,51.92678,-0.761755,Bk 2,no hyperrhoticity,485.135050670138,226.135006247693
Steeple Aston,51.929674,-1.3108,O 2,no hyperrhoticity,447.383235976195,225.956958533069
Henham,51.933227,0.251434,Ess 4,no hyperrhoticity,554.767641361626,228.522274345353
Longtown,51.955499,-2.989908,He 5,no hyperrhoticity,331.982257908538,229.067408427848
Harlington,51.962855,-0.492528,Bd 3,no hyperrhoticity,503.561590010461,230.495859227793
Deerhurst,51.964039,-2.190959,Gl 1,no hyperrhoticity,386.881325168279,229.571625184969
Gretton,51.972603,-1.989003,Gl 2,no hyperrhoticity,400.755338240773,230.506888201327
Tingewick,51.989984,-1.046743,Bk 1,no hyperrhoticity,465.449200244046,232.868816126626
Cornish Hall End,52.002133,0.450702,Ess 3,no hyperrhoticity,568.205487197966,236.626514522323
Therfield,52.017597,-0.054681,Hrt 1,no hyperrhoticity,533.475811131245,237.297037288936
Belchamp Walter,52.033474,0.650527,Ess 2,no hyperrhoticity,581.791177728794,240.5925280954
Kersey,52.058535,0.916917,Sf 5,no hyperrhoticity,599.946413461186,244.079027415957
Shipston-on-Stour,52.060655,-1.622814,Wa 7,no hyperrhoticity,425.856482612244,240.366523437359
Great Chesterford,52.062757,0.19682,Ess 1,no hyperrhoticity,550.578455381224,242.810377325941
Earl's Croome,52.078493,-2.190011,Wo 5,hyperrhoticity,386.979725589055,242.300276458634
Kedington,52.091876,0.48794,Sf 4,no hyperrhoticity,570.41908481025,246.691755326129
Bretforton,52.093246,-1.863793,Wo 7,no hyperrhoticity,409.330345053326,243.932747671658
Sulgrave,52.101639,-1.185457,Nth 5,no hyperrhoticity,455.78626822242,245.170345783439
Offenham,52.109097,-1.922863,Wo 6,no hyperrhoticity,405.282106284154,245.689673670425
Cradley,52.120677,-2.401822,He 3,hyperrhoticity,372.491637762686,247.050878078342
Great Barford,52.155899,-0.347477,Bd 2,no hyperrhoticity,513.037363252895,252.179411088355
Weobley,52.158942,-2.872496,He 2,no hyperrhoticity,340.321343938699,251.589266621381
Turvey,52.161581,-0.625545,Bd 1,no hyperrhoticity,494.00572339009,252.414457619747
Lyonshall,52.194384,-2.970589,He 7,no hyperrhoticity,333.66468827288,255.616091165256
Lighthorne,52.201448,-1.504368,Wa 6,no hyperrhoticity,433.869103293704,256.073540670715
Kislingbury,52.226684,-0.97832,Nth 4,no hyperrhoticity,469.776432601513,259.256232590105
Aston Cantlow,52.23591,-1.796421,Wa 5,no hyperrhoticity,413.900880583893,259.810080582534
Napton-on-the Hill,52.245966,-1.319795,Wa 4,no hyperrhoticity,446.435344891767,261.126898147565
Mendlesham,52.249163,1.07976,Sf 2,no hyperrhoticity,610.205850600287,265.733356413753
Clifton-upon-Teme,52.251555,-2.422225,Wo 4,hyperrhoticity,371.17961428847,261.614526976493
Elsworth,52.255314,-0.072272,C 2,no hyperrhoticity,531.566524286188,263.699069893514
Yoxford,52.265793,1.510936,Sf 3,no hyperrhoticity,639.536971729124,268.921461377879
Hanbury,52.271121,-2.056853,Wo 3,no hyperrhoticity,396.121006479801,263.70817552121
Kimbolton,52.296978,-0.386705,Hu 2,no hyperrhoticity,510.004957229639,267.807908524926
Brimfield,52.306538,-2.696273,He 1,no hyperrhoticity,352.532515046276,267.873912310607
Tuddenham,52.312338,0.548653,Sf 1,no hyperrhoticity,573.714964566667,271.349140798838
Little Harrowden,52.333567,-0.725155,Nth 3,no hyperrhoticity,486.856652877077,271.416781520933
Hartlebury,52.337686,-2.229982,Wo 2,no hyperrhoticity,384.332202404109,271.134833880569
Stoneleigh,52.352113,-1.517514,Wa 3,no hyperrhoticity,432.859159832341,272.824053966486
Hockley Heath,52.353533,-1.779911,Wa 2,no hyperrhoticity,414.988465957482,272.895233737442
Garboldisham,52.39558,0.94641,Nf 13,no hyperrhoticity,600.443088057559,281.633592250316
Warboys,52.404533,-0.077056,Hu 1,no hyperrhoticity,530.799063225024,280.284081049539
Welford,52.414995,-1.056133,Nth 2,no hyperrhoticity,464.18917790249,280.12726510685
Romsley,52.415712,-2.057134,Wo 1,no hyperrhoticity,396.114529731513,279.78955093326
Kinlet,52.417901,-2.410345,Sa 11,no hyperrhoticity,372.095408330668,280.110667440699
Clun,52.419476,-3.032585,Sa 9,hyperrhoticity,329.78469110246,280.708096699972
Pulham St Mary,52.419577,1.249913,Nf 12,no hyperrhoticity,620.964850232045,285.186603408404
Little Downham,52.430859,0.24094,C 1,no hyperrhoticity,552.335822471035,283.834468829958
Diddlebury,52.463766,-2.724558,Sa 10,no hyperrhoticity,350.779424966782,285.379445900196
Ullesthorpe,52.483753,-1.255161,Lei 10,no hyperrhoticity,450.575361869104,287.616403660507
Warmington,52.506469,-0.409984,Nth 1,no hyperrhoticity,507.905365467962,291.070257950965
Himley,52.520416,-2.184483,St 11,no hyperrhoticity,387.483739267369,291.449396070947
Ashwellthorpe,52.531495,1.16313,Nf 10,no hyperrhoticity,614.520585396257,297.367572443617
Nether Whitacre,52.531784,-1.660915,Wa 1,no hyperrhoticity,422.99928006044,292.751805945305
All Stretton,52.554179,-2.796974,Sa 7,no hyperrhoticity,345.971138479427,295.486978070198
Hilton,52.55748,-2.330017,Sa 8,no hyperrhoticity,377.62884557875,295.606941143135
Reedham,52.560618,1.566159,Nf 11,no hyperrhoticity,641.684809888402,301.88012622909
Lyddington,52.567357,-0.7123,R 2,no hyperrhoticity,487.269068829217,297.433120556877
Carlton Curlieu,52.570449,-0.98034,Lei 9,no hyperrhoticity,469.099361181292,297.486533638282
Goadby,52.578751,-0.892602,Lei 8,no hyperrhoticity,475.03074831245,298.497519236813
Chirbury,52.579293,-3.091498,Sa 6,hyperrhoticity,326.047419693943,298.541380784589
Kinnersley,52.586485,-2.70375,Sa 5,hyperrhoticity,352.325986864299,299.014394120058
Sheepy Magna,52.611185,-1.51529,Lei 7,no hyperrhoticity,432.81727488609,301.639376701473
Outwell,52.612299,0.236705,Nf 7,no hyperrhoticity,551.422594694795,304.001871207768
Shipdham,52.629152,0.88747,Nf 9,no hyperrhoticity,595.394919658734,307.441764115432
Wigginton,52.657183,-1.69169,St 10,no hyperrhoticity,420.852277009713,306.689821138576
Empingham,52.668853,-0.598097,R 1,no hyperrhoticity,494.788857526608,308.865381076847
Crowland,52.67677,-0.16876,L 15,no hyperrhoticity,523.793542615036,310.397223381327
Markfield,52.689224,-1.277134,Lei 5,no hyperrhoticity,448.85437532765,310.454127893375
Edingale,52.707547,-1.680999,St 9,no hyperrhoticity,421.550547448904,312.29473392281
Ludham,52.709747,1.537344,Nf 6,no hyperrhoticity,638.918089206512,318.362485006131
Lapley,52.715568,-2.187424,St 8,no hyperrhoticity,387.340626662037,313.15562900839
Great Dalby,52.724036,-0.896413,Lei 6,no hyperrhoticity,474.52509646254,314.652165334052
Montford,52.727604,-2.864466,Sa 4,hyperrhoticity,341.627110222886,314.828314211696
Packington,52.730103,-1.468288,Lei 4,no hyperrhoticity,435.901916241708,314.888406938937
Mavesyn Ridware,52.748115,-1.882952,St 7,no hyperrhoticity,407.90001121566,316.765682492225
Seagrave,52.751752,-1.083616,Lei 3,no hyperrhoticity,461.844372999195,317.557493186161
North Elmham,52.754624,0.945277,Nf 5,no hyperrhoticity,598.734907731988,321.550993427129
Grimston,52.766796,0.551157,Nf 4,no hyperrhoticity,572.098396261077,321.888485105615
Llanymynech,52.781316,-3.09031,Sa 3,hyperrhoticity,326.467985689903,321.00930128955
Swinstead,52.791139,-0.490348,L 13,no hyperrhoticity,501.788581300377,322.612834604244
Hathern,52.794724,-1.260395,Lei 2,no hyperrhoticity,449.865086633261,322.19981804458
Hoar Cross,52.805589,-1.806353,St 6,no hyperrhoticity,413.052758045599,323.169538399589
Blickling,52.808641,1.234994,Nf 3,no hyperrhoticity,618.008171748016,328.396513990375
Lutton,52.809452,0.124674,L 14,no hyperrhoticity,543.1920200577,325.697086160858
Ellenhall,52.833604,-2.232138,St 5,no hyperrhoticity,384.36282198709,326.293280891919
Harby,52.870898,-0.895212,Lei 1,no hyperrhoticity,474.355297303309,330.987792944237
Great Snoring,52.873663,0.891417,Nf 2,no hyperrhoticity,594.568897816434,334.639537165784
Prees,52.898764,-2.664916,Sa 2,no hyperrhoticity,355.277514288788,333.722726869835
Docking,52.900455,0.624724,Nf 1,no hyperrhoticity,576.517290952904,336.929579205549
Sutton-on-the Hill,52.901495,-1.654977,Db 7,no hyperrhoticity,423.205013521466,333.875248251835
Sutterton,52.905634,-0.097756,L 12,no hyperrhoticity,527.919762652555,335.973964424895
Weston Rhyn,52.912874,-3.06734,Sa 1,hyperrhoticity,328.234345324327,335.618470372461
Checkley,52.94145,-1.960382,He 4,no hyperrhoticity,402.662117674729,338.264472151587
Barlaston,52.945556,-2.158722,St 4,no hyperrhoticity,389.335743811381,338.732240314928
Hanmer,52.949682,-2.810294,Ch 6,no hyperrhoticity,345.563406493959,339.486614696266
Alton,52.977166,-1.891802,St 3,no hyperrhoticity,407.264337518462,342.241949249453
Audlem,52.98647,-2.512955,Ch 5,no hyperrhoticity,365.568080877781,343.394445917792
Fulbeck,53.043547,-0.591028,L 11,no hyperrhoticity,494.449741424952,350.548258442511
Kniveton,53.048151,-1.689661,Db 6,no hyperrhoticity,420.801756071091,350.17731476064
Oxton,53.058962,-1.060908,Nt 4,no hyperrhoticity,462.930081582402,351.747041833409
Beckingham,53.072277,-0.691828,L 10,no hyperrhoticity,487.634677919294,353.6157058139
Farndon,53.083869,-2.879133,Ch 4,no hyperrhoticity,341.121761428694,354.466482660505
Mow Cop,53.108014,-2.215955,St 2,no hyperrhoticity,385.544776693089,356.81285124496
Scopwick,53.10981,-0.407203,L 9,no hyperrhoticity,506.607701598873,358.176115827766
Warslow,53.125706,-1.873053,St 1,no hyperrhoticity,408.49387536278,358.766546954401
Stonebroom,53.133685,-1.379287,Db 5,no hyperrhoticity,441.523271758689,359.826507439678
Old Bolingbroke,53.163501,0.020602,L 8,no hyperrhoticity,535.069663277548,364.869664746828
Youlgreave,53.176166,-1.682148,Db 4,no hyperrhoticity,421.242162834649,364.419095291235
Swettenham,53.201644,-2.298803,Ch 3,no hyperrhoticity,380.042718376329,367.247659973778
South Clifton,53.221766,-0.76998,Nt 3,no hyperrhoticity,482.113821767167,370.150295953249
Cuckney,53.235214,-1.165102,Nt 2,no hyperrhoticity,455.719410513472,371.265412529176
Burbage,53.253491,-1.934746,Db 3,no hyperrhoticity,404.353108665351,372.975242736831
Kingsley,53.269498,-2.671434,Ch 1,no hyperrhoticity,355.225500068111,374.964092350328
Swaby,53.269749,0.078207,L 7,no hyperrhoticity,538.576455334158,376.796349021987
Rainow,53.280583,-2.071319,Ch 2,no hyperrhoticity,395.245300260577,375.989261677554
Wragby,53.286333,-0.30016,L 6,no hyperrhoticity,513.305111842587,377.974024697526
Bamford,53.34863,-1.686771,Db 2,no hyperrhoticity,420.849158575833,383.602017542887
North Wheatley,53.364008,-0.865736,Nt 1,no hyperrhoticity,475.470437098105,385.86640677241
Halewood,53.370573,-2.820975,La 14,no hyperrhoticity,345.382758939546,386.311236966994
Sheffield,53.381129,-1.470085,Y 34,no hyperrhoticity,435.245294260619,387.302265470673
Tealby,53.400822,-0.264055,L 5,no hyperrhoticity,515.401927255603,390.765784578195
Willoughton,53.42729,-0.601767,L 4,no hyperrhoticity,492.895292448174,393.216767783859
Tickhill,53.432935,-1.109363,Y 33,no hyperrhoticity,459.164984753468,393.303669977868
Charlesworth,53.433542,-1.991003,Db 1,no hyperrhoticity,400.597668842635,393.001887333443
Ecclesfield,53.441982,-1.466509,Y 32,no hyperrhoticity,435.432526540216,394.073222793523
Bickerstaffe,53.531828,-2.836868,La 13,no hyperrhoticity,344.535952601657,404.261038246823
Holmbridge,53.559091,-1.817881,Y 30,no hyperrhoticity,412.062437720909,406.98350564842
Keelby,53.57652,-0.243846,L 3,no hyperrhoticity,516.263682569413,410.340833403491
Skelmanthorpe,53.591923,-1.6509,Y 31,no hyperrhoticity,423.1042911557,410.677054314775
Harwood,53.602397,-2.38164,La 12,no hyperrhoticity,374.748387701592,411.853260444654
Eastoft,53.636232,-0.785108,L 1,no hyperrhoticity,480.318746396276,416.235251872086
Saxby All Saints,53.636237,-0.502388,L 2,no hyperrhoticity,499.008732223841,416.592135975657
Golcar,53.637784,-1.845641,Y 29,no hyperrhoticity,410.204805879696,415.733214386798
Eccleston,53.646615,-2.725534,La 11,no hyperrhoticity,352.04470609495,416.949080974481
Thornhill,53.662214,-1.612349,Y 26,no hyperrhoticity,425.613081865149,418.509636975039
Marshside,53.666234,-2.969501,La 10,no hyperrhoticity,335.949476061523,419.323602599126
Welwick,53.669915,0.034839,Y 28,no hyperrhoticity,534.414349218486,421.219756992203
Carleton,53.676976,-1.297274,Y 27,no hyperrhoticity,446.414416811094,420.311362886949
Heptonstall,53.748748,-2.020624,Y 21,no hyperrhoticity,398.640109921758,428.066528870969
Wibsey,53.769167,-1.784397,Y 22,no hyperrhoticity,414.209367298046,430.359432956756
Leeds,53.801279,-1.548567,Y 23,no hyperrhoticity,429.729019344954,434.004732339024
Read,53.806051,-2.359046,La 9,no hyperrhoticity,376.357763462225,434.500874216967
Ribchester,53.813959,-2.532928,La 8,no hyperrhoticity,364.914777757571,435.452530851627
Newbald,53.827689,-0.596466,Y 25,no hyperrhoticity,492.368822664637,437.761612563013
Thistleton,53.832774,-2.901766,La 7,no hyperrhoticity,340.659466892905,437.790954149159
Cawood,53.833277,-1.131631,Y 24,no hyperrhoticity,457.14221736294,437.819501748785
Fleetwood,53.916661,-3.035673,La 5,no hyperrhoticity,331.984278719458,447.243061738789
Pilling,53.928398,-2.908587,La 6,no hyperrhoticity,340.346900879096,448.434294253982
Spofforth,53.952865,-1.447851,Y 18,no hyperrhoticity,436.230320517902,450.915068602847
York,53.962301,-1.081884,Y 19,no hyperrhoticity,460.229843511014,452.213904499485
Dolphinholme,53.975531,-2.738901,La 4,no hyperrhoticity,351.542066531515,453.548227058179
Gargrave,53.984331,-2.101438,Y 17,no hyperrhoticity,393.348931579689,454.27927660888
Nafferton,54.01943,-0.390184,Y 20,no hyperrhoticity,505.459093266433,459.378307122856
Grassington,54.069208,-1.999407,Y 14,no hyperrhoticity,400.038802631068,463.717179921612
Pateley Bridge,54.08502,-1.75522,Y 15,no hyperrhoticity,416.010944463896,465.503997146985
Easingwold,54.120007,-1.191878,Y 16,no hyperrhoticity,452.813909938887,469.670479701366
Ronague,54.122411,-4.688597,Man 2,no hyperrhoticity,224.318256620432,472.97705446194
Horton-in-Ribblesdale,54.144371,-2.292748,Y 13,no hyperrhoticity,380.878832869342,472.118854880759
Burton-in-Lonsdale,54.144792,-2.534649,Y 12,no hyperrhoticity,365.079260444805,472.258156398469
Rillington,54.156024,-0.702931,Y 11,no hyperrhoticity,484.69358924944,474.152852831042
Yealand Conyers,54.167485,-2.760593,La 3,no hyperrhoticity,350.349068358257,474.917964516724
Cartmel,54.199149,-2.949692,La 2,no hyperrhoticity,338.052499908247,478.589936520207
Helmsley,54.246109,-1.064661,Y 10,no hyperrhoticity,460.942096227195,483.801750204575
Dent,54.277644,-2.455109,Y 5,no hyperrhoticity,370.369634922465,487.002034221165
Bedale,54.288701,-1.593318,Y 8,no hyperrhoticity,426.470401189282,488.212930516839
Borrowby,54.294629,-1.340648,Y 9,no hyperrhoticity,442.910012554607,488.996672205219
Askrigg,54.314967,-2.081093,Y 7,no hyperrhoticity,394.725107670401,491.061940500481
Andreas,54.368387,-4.447327,Man 1,no hyperrhoticity,241.029390013599,499.762454897644
Coniston,54.369071,-3.07587,La 1,no hyperrhoticity,330.110554226542,497.611712986161
Muker,54.376702,-2.140116,Y 6,no hyperrhoticity,390.899462523202,497.936409412111
Staveley,54.377897,-2.817677,We 4,no hyperrhoticity,346.893963366979,498.368358993654
Gosforth,54.418631,-3.434853,Cu 6,no hyperrhoticity,306.904356338178,503.540432046354
Egton,54.448889,-0.753408,Y 4,no hyperrhoticity,480.822040388464,506.674152984099
Melsonby,54.470842,-1.695177,Y 1,no hyperrhoticity,419.752915469449,508.444002794976
Stokesley,54.471908,-1.18531,Y 2,no hyperrhoticity,452.79107316989,508.825298038961
Soulby,54.494361,-2.387226,We 3,no hyperrhoticity,374.921683962504,511.086942778082
Patterdale,54.536462,-2.938237,We 2,no hyperrhoticity,339.299184244132,516.106933994889
Skelton-in-Cleveland,54.561954,-0.98951,Y 3,no hyperrhoticity,465.334442058818,519.007802198742
Great Strickland,54.597917,-2.687681,We 1,no hyperrhoticity,355.575893675062,522.756984733181
Eggleston,54.609575,-2.002492,Du 6,no hyperrhoticity,399.839061832347,523.836769786569
Threlkeld,54.618972,-3.054252,Cu 4,no hyperrhoticity,331.931318955468,525.392904155356
Brigham,54.659016,-3.417476,Cu 3,no hyperrhoticity,308.570723101898,530.260323721842
Witton-le-Wear,54.677992,-1.778925,Du 4,no hyperrhoticity,414.253483570854,531.471454996965
Bishop Middleham,54.679575,-1.486441,Du 5,no hyperrhoticity,433.109549208442,531.746221856534
Hunsonby,54.715531,-2.652587,Cu 5,no hyperrhoticity,357.964509510626,535.821155344124
Wearhead,54.754126,-2.225339,Du 3,no hyperrhoticity,385.498797318579,539.943273315438
Abbeytown,54.844664,-3.288249,Cu 2,no hyperrhoticity,317.284883585386,550.754061889535
Ebchester,54.893863,-1.841485,Du 2,no hyperrhoticity,410.165733492693,555.479450842778
Allendale,54.896837,-2.25502,Nb 9,no hyperrhoticity,383.646515609155,555.828630100643
Washington,54.897432,-1.517366,Du 1,no hyperrhoticity,430.948978504076,555.97170293945
Haltwhistle,54.972237,-2.460856,Nb 7,no hyperrhoticity,370.502326804603,564.285601809278
Heddon-on-the-Wall,54.998474,-1.802084,Nb 8,no hyperrhoticity,412.659643576451,567.125728009132
Longtown,55.009299,-2.971888,Cu 1,no hyperrhoticity,337.851159326444,568.744151482091
Earsdon,55.045871,-1.494876,Nb 6,no hyperrhoticity,432.271902619779,572.498255109538
Wark on Tyne,55.093473,-2.319751,Nb 5,no hyperrhoticity,379.595585875686,577.725045331098
Ellington,55.220624,-1.563917,Nb 4,no hyperrhoticity,427.73953794101,591.913405375689
Thropton,55.313093,-1.951753,Nb 3,no hyperrhoticity,403.061914359915,602.117155667991
Embleton,55.495952,-1.635481,Nb 2,no hyperrhoticity,423.026963505221,622.524373616708
Lowick,55.651169,-1.976763,Nb 1,no hyperrhoticity,401.462125683641,639.736740653343
Gooderstone,52.589424,0.59697,Nf 8,no hyperrhoticity,575.899734189405,302.276070465448
Mon 7,51.584144,-2.997666,Mon 7,no hyperrhoticity,330.88429550561,187.77820142338
